{
  "type": "FeatureCollection",
  "features": [
    {
      "type": "Feature",
      "properties": {
        "norad_id": 31247,
        "name": "FENGYUN 1C DEB",
        "group": "fengyun-1c-debris",
        "lat": 63.01874390351615,
        "lon": 78.53548852003755,
        "alt_km": 851.717447959737,
        "timestamp": "2025-12-17T07:00:47.185850+00:00",
        "meta_object_name": "FENGYUN 1C DEB",
        "meta_object_id": "1999-025BMD",
        "meta_epoch": "2025-12-15T15:18:24.624000",
        "meta_mean_motion": 14.05128845,
        "meta_eccentricity": 0.00590017,
        "meta_inclination": 99.3663,
        "meta_ra_of_asc_node": 237.9117,
        "meta_arg_of_pericenter": 54.7081,
        "meta_mean_anomaly": 335.7276,
        "meta_ephemeris_type": 0,
        "meta_classification_type": "U",
        "meta_norad_cat_id": 31247,
        "meta_element_set_no": 999,
        "meta_rev_at_epoch": 95562,
        "meta_bstar": 0.0010249824,
        "meta_mean_motion_dot": 1.633e-05,
        "meta_mean_motion_ddot": 0,
        "tle_line1": "1 31247U 99025BMD 25349.63778500  .00001633  00000+0  10250-2 0  9993",
        "tle_line2": "2 31247  99.3663 237.9117 0059001  54.7081 335.7276 14.05128845955623"
      },
      "geometry": {
        "type": "Point",
        "coordinates": [
          78.53548852003755,
          63.01874390351615
        ]
      }
    },
    {
      "type": "Feature",
      "properties": {
        "norad_id": 31248,
        "name": "FENGYUN 1C DEB",
        "group": "fengyun-1c-debris",
        "lat": 52.907093689993296,
        "lon": -118.78085156483323,
        "alt_km": 993.308211007542,
        "timestamp": "2025-12-17T07:00:47.185861+00:00",
        "meta_object_name": "FENGYUN 1C DEB",
        "meta_object_id": "1999-025BME",
        "meta_epoch": "2025-12-16T02:57:28.804320",
        "meta_mean_motion": 13.92788503,
        "meta_eccentricity": 0.01097282,
        "meta_inclination": 99.2641,
        "meta_ra_of_asc_node": 47.5837,
        "meta_arg_of_pericenter": 302.1333,
        "meta_mean_anomaly": 85.9755,
        "meta_ephemeris_type": 0,
        "meta_classification_type": "U",
        "meta_norad_cat_id": 31248,
        "meta_element_set_no": 999,
        "meta_rev_at_epoch": 94871,
        "meta_bstar": 0.00051747969,
        "meta_mean_motion_dot": 6.58e-06,
        "meta_mean_motion_ddot": 0,
        "tle_line1": "1 31248U 99025BME 25350.12325005  .00000658  00000+0  51748-3 0  9992",
        "tle_line2": "2 31248  99.2641  47.5837 0109728 302.1333  85.9755 13.92788503948711"
      },
      "geometry": {
        "type": "Point",
        "coordinates": [
          -118.78085156483323,
          52.907093689993296
        ]
      }
    },
    {
      "type": "Feature",
      "properties": {
        "norad_id": 31250,
        "name": "FENGYUN 1C DEB",
        "group": "fengyun-1c-debris",
        "lat": 54.585384252457644,
        "lon": 32.953910079405986,
        "alt_km": 969.2084563956469,
        "timestamp": "2025-12-17T07:00:47.185872+00:00",
        "meta_object_name": "FENGYUN 1C DEB",
        "meta_object_id": "1999-025BMG",
        "meta_epoch": "2025-12-16T01:19:04.160928",
        "meta_mean_motion": 14.03098229,
        "meta_eccentricity": 0.01336348,
        "meta_inclination": 98.3902,
        "meta_ra_of_asc_node": 199.8332,
        "meta_arg_of_pericenter": 288.4776,
        "meta_mean_anomaly": 70.1907,
        "meta_ephemeris_type": 0,
        "meta_classification_type": "U",
        "meta_norad_cat_id": 31250,
        "meta_element_set_no": 999,
        "meta_rev_at_epoch": 95564,
        "meta_bstar": 0.00089079512,
        "meta_mean_motion_dot": 1.459e-05,
        "meta_mean_motion_ddot": 0,
        "tle_line1": "1 31250U 99025BMG 25350.05490927  .00001459  00000+0  89080-3 0  9993",
        "tle_line2": "2 31250  98.3902 199.8332 0133634 288.4776  70.1907 14.03098229955642"
      },
      "geometry": {
        "type": "Point",
        "coordinates": [
          32.953910079405986,
          54.585384252457644
        ]
      }
    },
    {
      "type": "Feature",
      "properties": {
        "norad_id": 31252,
        "name": "FENGYUN 1C DEB",
        "group": "fengyun-1c-debris",
        "lat": 65.31556787505194,
        "lon": -8.548202811440543,
        "alt_km": 753.0117572207428,
        "timestamp": "2025-12-17T07:00:47.185882+00:00",
        "meta_object_name": "FENGYUN 1C DEB",
        "meta_object_id": "1999-025BMJ",
        "meta_epoch": "2025-12-14T20:20:10.671072",
        "meta_mean_motion": 14.40180409,
        "meta_eccentricity": 0.02138392,
        "meta_inclination": 98.3176,
        "meta_ra_of_asc_node": 7.6341,
        "meta_arg_of_pericenter": 165.8775,
        "meta_mean_anomaly": 194.8522,
        "meta_ephemeris_type": 0,
        "meta_classification_type": "U",
        "meta_norad_cat_id": 31252,
        "meta_element_set_no": 999,
        "meta_rev_at_epoch": 97237,
        "meta_bstar": 0.00032286894,
        "meta_mean_motion_dot": 1.287e-05,
        "meta_mean_motion_ddot": 0,
        "tle_line1": "1 31252U 99025BMJ 25348.84734573  .00001287  00000+0  32287-3 0  9993",
        "tle_line2": "2 31252  98.3176   7.6341 0213839 165.8775 194.8522 14.40180409972375"
      },
      "geometry": {
        "type": "Point",
        "coordinates": [
          -8.548202811440543,
          65.31556787505194
        ]
      }
    },
    {
      "type": "Feature",
      "properties": {
        "norad_id": 31253,
        "name": "FENGYUN 1C DEB",
        "group": "fengyun-1c-debris",
        "lat": -56.78761721609542,
        "lon": 70.44487962056044,
        "alt_km": 1037.419738917245,
        "timestamp": "2025-12-17T07:00:47.185893+00:00",
        "meta_object_name": "FENGYUN 1C DEB",
        "meta_object_id": "1999-025BMK",
        "meta_epoch": "2025-12-16T10:45:47.179008",
        "meta_mean_motion": 14.0360519,
        "meta_eccentricity": 0.02908045,
        "meta_inclination": 99.0769,
        "meta_ra_of_asc_node": 55.4683,
        "meta_arg_of_pericenter": 80.5656,
        "meta_mean_anomaly": 282.8254,
        "meta_ephemeris_type": 0,
        "meta_classification_type": "U",
        "meta_norad_cat_id": 31253,
        "meta_element_set_no": 999,
        "meta_rev_at_epoch": 69050,
        "meta_bstar": 9.2269838e-05,
        "meta_mean_motion_dot": 1.65e-06,
        "meta_mean_motion_ddot": 0,
        "tle_line1": "1 31253U 99025BMK 25350.44846272  .00000165  00000+0  92270-4 0  9996",
        "tle_line2": "2 31253  99.0769  55.4683 0290804  80.5656 282.8254 14.03605190690500"
      },
      "geometry": {
        "type": "Point",
        "coordinates": [
          70.44487962056044,
          -56.78761721609542
        ]
      }
    },
    {
      "type": "Feature",
      "properties": {
        "norad_id": 31254,
        "name": "FENGYUN 1C DEB",
        "group": "fengyun-1c-debris",
        "lat": 4.6983221693101695,
        "lon": -138.39243283533105,
        "alt_km": 667.4495755198996,
        "timestamp": "2025-12-17T07:00:47.185903+00:00",
        "meta_object_name": "FENGYUN 1C DEB",
        "meta_object_id": "1999-025BML",
        "meta_epoch": "2025-12-14T22:10:40.043712",
        "meta_mean_motion": 14.36364402,
        "meta_eccentricity": 0.01513959,
        "meta_inclination": 98.4632,
        "meta_ra_of_asc_node": 38.5792,
        "meta_arg_of_pericenter": 195.605,
        "meta_mean_anomaly": 341.5186,
        "meta_ephemeris_type": 0,
        "meta_classification_type": "U",
        "meta_norad_cat_id": 31254,
        "meta_element_set_no": 999,
        "meta_rev_at_epoch": 97547,
        "meta_bstar": 0.00046816112,
        "meta_mean_motion_dot": 1.515e-05,
        "meta_mean_motion_ddot": 0,
        "tle_line1": "1 31254U 99025BML 25348.92407458  .00001515  00000+0  46816-3 0  9990",
        "tle_line2": "2 31254  98.4632  38.5792 0151395 195.6050 341.5186 14.36364402975476"
      },
      "geometry": {
        "type": "Point",
        "coordinates": [
          -138.39243283533105,
          4.6983221693101695
        ]
      }
    },
    {
      "type": "Feature",
      "properties": {
        "norad_id": 31255,
        "name": "FENGYUN 1C DEB",
        "group": "fengyun-1c-debris",
        "lat": 21.31901755906743,
        "lon": 164.8678644065816,
        "alt_km": 733.3969403146239,
        "timestamp": "2025-12-17T07:00:47.185913+00:00",
        "meta_object_name": "FENGYUN 1C DEB",
        "meta_object_id": "1999-025BMM",
        "meta_epoch": "2025-12-16T07:04:05.943936",
        "meta_mean_motion": 14.09733376,
        "meta_eccentricity": 0.02705206,
        "meta_inclination": 99.3083,
        "meta_ra_of_asc_node": 167.5051,
        "meta_arg_of_pericenter": 333.5969,
        "meta_mean_anomaly": 25.1624,
        "meta_ephemeris_type": 0,
        "meta_classification_type": "U",
        "meta_norad_cat_id": 31255,
        "meta_element_set_no": 999,
        "meta_rev_at_epoch": 96851,
        "meta_bstar": 0.00027161431,
        "meta_mean_motion_dot": 6.16e-06,
        "meta_mean_motion_ddot": 0,
        "tle_line1": "1 31255U 99025BMM 25350.29451324  .00000616  00000+0  27161-3 0  9998",
        "tle_line2": "2 31255  99.3083 167.5051 0270520 333.5969  25.1624 14.09733376968511"
      },
      "geometry": {
        "type": "Point",
        "coordinates": [
          164.8678644065816,
          21.31901755906743
        ]
      }
    }
  ]
}